{
  "type": "FeatureCollection",
  "features": [
    {
      "type": "Feature",
      "geometry": {
        "type": "Point",
        "coordinates": [101.7057985, 3.1609804]
      },
      "properties": {
        "id": "place-demo-home",
        "name": "Demo Home (Jalan Haji Hassan Salleh)",
        "placeType": "origin"
      }
    },
    {
      "type": "Feature",
      "geometry": {
        "type": "Point",
        "coordinates": [101.7102705, 3.1596015]
      },
      "properties": {
        "id": "place-demo-school",
        "name": "Demo School (near Jalan Ampang)",
        "placeType": "destination"
      }
    },
    {
      "type": "Feature",
      "geometry": {
        "type": "Point",
        "coordinates": [101.7067864, 3.1613773]
      },
      "properties": {
        "id": "place-demo-transit",
        "name": "Kampung Baru LRT Station",
        "placeType": "transit"
      }
    },
    {
      "type": "Feature",
      "geometry": {
        "type": "Point",
        "coordinates": [101.7084433, 3.160753]
      },
      "properties": {
        "id": "place-saloma-link",
        "name": "Saloma Link",
        "placeType": "landmark"
      }
    }
  ]
}
